H1 CPF 01  gfz 2021 06 07 12  6582 terrasarx 
H2 0702601  6201 31698    2021 06 07 12 59 42 2021 06 12 00 00 42   120 1 1  0 0 0
H9
10 0 59374  72702.000000  0   -5228371.683   2798795.971   3495863.406
10 0 59374  72822.000000  0   -5494513.194   3159502.101   2690159.403
10 0 59374  72942.000000  0   -5658705.938   3468722.876   1837073.744
10 0 59374  73062.000000  0   -5719044.811   3719250.861    951631.729
10 0 59374  73182.000000  0   -5675576.112   3904900.775     49430.678
10 0 59374  73302.000000  0   -5530278.265   4020653.845   -853642.574
10 0 59374  73422.000000  0   -5287004.051   4062779.686  -1741700.374
10 0 59374  73542.000000  0   -4951384.388   4028931.986  -2599143.731
10 0 59374  73662.000000  0   -4530695.590   3918214.440  -3410943.182
10 0 59374  73782.000000  0   -4033695.925   3731216.580  -4162905.446
10 0 59374  73902.000000  0   -3470436.286   3470019.656  -4841920.050
10 0 59374  74022.000000  0   -2852050.027   3138172.816  -5436182.325
10 0 59374  74142.000000  0   -2190529.204   2740641.522  -5935389.816
10 0 59374  74262.000000  0   -1498488.986   2283729.094  -6330911.791
10 0 59374  74382.000000  0    -788925.998   1774972.282  -6615926.448
10 0 59374  74502.000000  0     -74976.968   1223015.468  -6785527.135
10 0 59374  74622.000000  0     630319.340    637464.234  -6836797.421
10 0 59374  74742.000000  0    1314254.311     28721.571  -6768857.292
10 0 59374  74862.000000  0    1964674.181   -592193.462  -6582876.101
10 0 59374  74982.000000  0    2570190.404  -1213839.950  -6282053.862
10 0 59374  75102.000000  0    3120376.092  -1824560.596  -5871572.328
10 0 59374  75222.000000  0    3605944.465  -2412694.908  -5358515.493
10 0 59374  75342.000000  0    4018909.261  -2966800.236  -4751759.518
10 0 59374  75462.000000  0    4352720.303  -3475874.696  -4061828.639
10 0 59374  75582.000000  0    4602372.409  -3929576.174  -3300722.734
10 0 59374  75702.000000  0    4764487.690  -4318435.206  -2481717.129
10 0 59374  75822.000000  0    4837366.994  -4634056.175  -1619135.219
10 0 59374  75942.000000  0    4821008.892  -4869302.152   -728098.614
10 0 59374  76062.000000  0    4717093.718  -5018458.027    175741.884
10 0 59374  76182.000000  0    4528933.271  -5077366.369   1076487.659
10 0 59374  76302.000000  0    4261387.880  -5043532.972   1958280.864
10 0 59374  76422.000000  0    3920750.576  -4916198.210   2805592.439
10 0 59374  76542.000000  0    3514604.032  -4696374.217   3603503.143
10 0 59374  76662.000000  0    3051652.328  -4386845.374   4337972.742
10 0 59374  76782.000000  0    2541532.713  -3992132.519   4996090.445
10 0 59374  76902.000000  0    1994612.371  -3518422.636   5566302.199
10 0 59374  77022.000000  0    1421774.664  -2973466.101   6038611.771
10 0 59374  77142.000000  0     834199.620  -2366443.126   6404750.965
10 0 59374  77262.000000  0     243144.080  -1707804.475   6658317.933
10 0 59374  77382.000000  0    -340274.165  -1009088.666   6794882.675
10 0 59374  77502.000000  0    -905284.354   -282717.904   6812060.287
10 0 59374  77622.000000  0   -1441660.651    458223.181   6709549.729
10 0 59374  77742.000000  0   -1939906.646   1200222.732   6489138.652
10 0 59374  77862.000000  0   -2391423.432   1929587.093   6154674.173
10 0 59374  77982.000000  0   -2788658.892   2632692.934   5712000.023
10 0 59374  78102.000000  0   -3125235.888   3296242.824   5168860.798
10 0 59374  78222.000000  0   -3396058.198   3907519.330   4534772.893
10 0 59374  78342.000000  0   -3597390.921   4454633.598   3820863.221
10 0 59374  78462.000000  0   -3726913.660   4926762.898   3039677.230
10 0 59374  78582.000000  0   -3783744.989   5314371.757   2204958.591
10 0 59374  78702.000000  0   -3768436.924   5609409.833   1331404.255
10 0 59374  78822.000000  0   -3682940.053   5805482.689    434401.484
10 0 59374  78942.000000  0   -3530541.038   5897992.966   -470250.110
10 0 59374  79062.000000  0   -3315771.460   5884244.939  -1366627.294
10 0 59374  79182.000000  0   -3044291.244   5763509.416  -2238974.050
10 0 59374  79302.000000  0   -2722747.681   5537047.182  -3071986.321
10 0 59374  79422.000000  0   -2358618.079   5208093.681  -3851083.662
10 0 59374  79542.000000  0   -1960039.483   4781804.536  -4562665.645
10 0 59374  79662.000000  0   -1535628.558   4265163.600  -5194344.875
10 0 59374  79782.000000  0   -1094298.084   3666859.435  -5735155.110
10 0 59374  79902.000000  0    -645072.109   2997131.094  -6175733.575
10 0 59374  80022.000000  0    -196903.752   2267585.578  -6508472.477
10 0 59374  80142.000000  0     241499.449   1490993.526  -6727638.096
10 0 59374  80262.000000  0     661839.783    681066.353  -6829460.292
10 0 59374  80382.000000  0    1056382.666   -147782.402  -6812190.553
10 0 59374  80502.000000  0    1418095.284   -980688.975  -6676128.033
10 0 59374  80622.000000  0    1740768.345  -1802599.106  -6423613.504
10 0 59374  80742.000000  0    2019120.816  -2598532.697  -6058993.863
10 0 59374  80862.000000  0    2248886.073  -3353851.349  -5588556.534
10 0 59374  80982.000000  0    2426878.369  -4054527.387  -5020432.621
10 0 59374  81102.000000  0    2551037.487  -4687405.939  -4364465.490
10 0 59374  81222.000000  0    2620450.735  -5240454.538  -3632050.869
10 0 59374  81342.000000  0    2635351.860  -5702999.464  -2835948.919
10 0 59374  81462.000000  0    2597096.857  -6065941.413  -1990067.797
10 0 59374  81582.000000  0    2508116.951  -6321945.488  -1109223.427
10 0 59374  81702.000000  0    2371848.287  -6465599.761   -208877.213
10 0 59374  81822.000000  0    2192639.330  -6493535.255    695141.550
10 0 59374  81942.000000  0    1975639.723  -6404507.162   1586920.639
10 0 59374  82062.000000  0    1726672.704  -6199433.657   2450755.282
10 0 59374  82182.000000  0    1452092.885  -5881388.859   3271433.601
10 0 59374  82302.000000  0    1158635.380  -5455553.233   4034511.039
10 0 59374  82422.000000  0     853259.008  -4929122.237   4726568.365
10 0 59374  82542.000000  0     542987.816  -4311177.261   5335449.589
10 0 59374  82662.000000  0     234754.034  -3612519.092   5850475.217
10 0 59374  82782.000000  0     -64752.069  -2845468.707   6262625.454
10 0 59374  82902.000000  0    -349223.670  -2023642.564   6564691.029
10 0 59374  83022.000000  0    -612866.889  -1161707.506   6751392.726
10 0 59374  83142.000000  0    -850516.402   -275117.314   6819469.299
10 0 59374  83262.000000  0   -1057735.367    620165.503   6767731.539
10 0 59374  83382.000000  0   -1230897.757   1507956.981   6597081.484
10 0 59374  83502.000000  0   -1367251.509   2372143.480   6310497.535
10 0 59374  83622.000000  0   -1464962.389   3196973.996   5912985.906
10 0 59374  83742.000000  0   -1523137.804   3967348.653   5411498.016
10 0 59374  83862.000000  0   -1541829.243   4669098.469   4814815.434
10 0 59374  83982.000000  0   -1522014.724   5289252.829   4133402.183
10 0 59374  84102.000000  0   -1465560.012   5816287.438   3379224.860
10 0 59374  84222.000000  0   -1375160.976   6240347.409   2565544.873
10 0 59374  84342.000000  0   -1254267.992   6553442.015   1706684.059
10 0 59374  84462.000000  0   -1106990.914   6749604.021    817767.773
10 0 59374  84582.000000  0    -937989.796   6825008.925    -85547.751
10 0 59374  84702.000000  0    -752353.583   6778053.690   -987359.098
10 0 59374  84822.000000  0    -555469.192   6609389.384  -1871806.895
10 0 59374  84942.000000  0    -352885.566   6321905.115  -2723363.578
10 0 59374  85062.000000  0    -150176.736   5920668.357  -3527110.263
10 0 59374  85182.000000  0      47193.743   5412824.624  -4268999.661
10 0 59374  85302.000000  0     234003.901   4807458.071  -4936100.350
10 0 59374  85422.000000  0     405396.702   4115417.024  -5516817.189
10 0 59374  85542.000000  0     556992.833   3349109.085  -6001085.114
10 0 59374  85662.000000  0     684990.005   2522270.258  -6380533.267
10 0 59374  85782.000000  0     786247.502   1649714.494  -6648617.830
10 0 59374  85902.000000  0     858354.801    747068.711  -6800724.015
10 0 59374  86022.000000  0     899682.716   -169503.791  -6834237.335
10 0 59374  86142.000000  0     909416.927  -1083587.580  -6748583.389
10 0 59374  86262.000000  0     887572.914  -1978801.789  -6545234.769
10 0 59374  86382.000000  0     834993.071  -2839084.788  -6227688.613
10 0 59375    102.000000  0     753325.670  -3648977.418  -5801415.578
10 0 59375    222.000000  0     644984.730  -4393899.879  -5273774.495
10 0 59375    342.000000  0     513093.401  -5060414.828  -4653895.901
10 0 59375    462.000000  0     361410.201  -5636475.109  -3952535.922
10 0 59375    582.000000  0     194239.411  -6111650.745  -3181899.198
10 0 59375    702.000000  0      16327.571  -6477328.709  -2355433.658
10 0 59375    822.000000  0    -167251.774  -6726882.456  -1487600.078
10 0 59375    942.000000  0    -351222.855  -6855804.971   -593618.078
10 0 59375   1062.000000  0    -530238.797  -6861800.416    310805.052
10 0 59375   1182.000000  0    -699015.887  -6744832.422   1209756.560
10 0 59375   1302.000000  0    -852467.761  -6507128.181   2087406.533
10 0 59375   1422.000000  0    -985835.818  -6153136.139   2928296.280
10 0 59375   1542.000000  0   -1094811.605  -5689438.337   3717619.718
10 0 59375   1662.000000  0   -1175648.428  -5124619.177   4441489.709
10 0 59375   1782.000000  0   -1225260.720  -4469097.004   5087184.076
10 0 59375   1902.000000  0   -1241307.316  -3734923.248   5643369.483
10 0 59375   2022.000000  0   -1222257.979  -2935550.665   6100298.950
10 0 59375   2142.000000  0   -1167440.283  -2085577.556   6449976.397
10 0 59375   2262.000000  0   -1077066.849  -1200477.068   6686289.293
10 0 59375   2382.000000  0    -952243.836   -296313.213   6805110.564
10 0 59375   2502.000000  0    -794960.111    610551.755   6804365.985
10 0 59375   2622.000000  0    -608055.664   1503752.885   6684068.531
10 0 59375   2742.000000  0    -395170.055   2367217.497   6446318.221
99
